[{"OBJECT_NAME":"KUIPER-00065","OBJECT_ID":"2025-134AB","EPOCH":"2026-03-09T16:33:07.968384","MEAN_MOTION":14.799424,"ECCENTRICITY":7.199e-5,"INCLINATION":51.9035,"RA_OF_ASC_NODE":240.6799,"ARG_OF_PERICENTER":80.086,"MEAN_ANOMALY":280.0184,"EPHEMERIS_TYPE":0,"CLASSIFICATION_TYPE":"U","NORAD_CAT_ID":64525,"ELEMENT_SET_NO":999,"REV_AT_EPOCH":3995,"BSTAR":0.00062633885,"MEAN_MOTION_DOT":4.558e-5,"MEAN_MOTION_DDOT":0},{"OBJECT_NAME":"YAOGAN-11 DEB","OBJECT_ID":"2010-047E","EPOCH":"2026-03-08T16:31:19.056000","MEAN_MOTION":14.45539551,"ECCENTRICITY":0.01693465,"INCLINATION":98.095,"RA_OF_ASC_NODE":156.6691,"ARG_OF_PERICENTER":185.8717,"MEAN_ANOMALY":174.0494,"EPHEMERIS_TYPE":0,"CLASSIFICATION_TYPE":"U","NORAD_CAT_ID":38175,"ELEMENT_SET_NO":999,"REV_AT_EPOCH":24845,"BSTAR":0.0013687272,"MEAN_MOTION_DOT":5.722e-5,"MEAN_MOTION_DDOT":0}]
